{"spkid": "20514596", "covariance": {"epoch": "2457800.5", "labels": ["e", "q", "tp", "node", "peri", "i"], "elements": [{"title": "eccentricity", "value": ".7149096705879151", "units": null, "name": "e", "sigma": 3.09436982234524e-08, "label": "e"}, {"label": "q", "sigma": 3.83538584986959e-08, "name": "q", "title": "perihelion distance", "value": ".3539752057464137", "units": "au"}, {"label": "tp", "value": "2457840.525104160645", "title": "time of perihelion passage", "units": "TDB", "name": "tp", "sigma": 5.9377391027744e-06}, {"title": "longitude of the ascending node", "value": "7.028578406000625", "units": "deg", "name": "om", "sigma": 7.19117280629197e-06, "label": "node"}, {"label": "peri", "value": "312.8684771036854", "title": "argument of perihelion", "units": "deg", "name": "w", "sigma": 8.23023407965551e-06}, {"units": "deg", "title": "inclination", "value": "15.66291458832382", "sigma": 6.41726386081429e-06, "name": "i", "label": "i"}], "data": [["9.575124597440939E-16", "-1.186786138555809E-15", "-2.71788185058585E-14", "1.207833071991581E-14", "6.419779737392752E-14", "5.87234796149339E-14"], ["-1.186786138555809E-15", "1.47101846173799E-15", "3.473451959744893E-14", "-1.46934087476616E-14", "-7.982122152161833E-14", "-7.329283428523167E-14"], ["-2.71788185058585E-14", "3.473451959744893E-14", "3.525674565261619E-11", "-6.612330537718473E-12", "1.347426910839027E-11", "-9.680788878693153E-12"], ["1.207833071991581E-14", "-1.46934087476616E-14", "-6.612330537718473E-12", "5.171296632995313E-11", "-5.309799256081123E-11", "9.663651071879698E-14"], ["6.419779737392752E-14", "-7.982122152161833E-14", "1.347426910839027E-11", "-5.309799256081123E-11", "6.773675300592301E-11", "4.868317622659355E-12"], ["5.87234796149339E-14", "-7.329283428523167E-14", "-9.680788878693153E-12", "9.663651071879698E-14", "4.868317622659355E-12", "4.118127545931307E-11"]]}, "elements": [{"units": null, "value": ".7151435329271155", "title": "eccentricity", "sigma": "3.0979E-8", "name": "e", "label": "e"}, {"name": "a", "sigma": "6.416E-10", "title": "semi-major axis", "value": "1.24150775207919", "units": "au", "label": "a"}, {"label": "q", "sigma": "3.8344E-8", "name": "q", "units": "au", "title": "perihelion distance", "value": ".3536515121008765"}, {"label": "i", "value": "15.66836122352366", "title": "inclination; angle with respect to x-y ecliptic plane", "units": "deg", "sigma": "6.4229E-6", "name": "i"}, {"label": "node", "value": "6.937002896755159", "title": "longitude of the ascending node", "units": "deg", "sigma": "7.1863E-6", "name": "om"}, {"label": "peri", "name": "w", "sigma": "8.216E-6", "title": "argument of perihelion", "value": "312.9581081188559", "units": "deg"}, {"label": "M", "name": "ma", "sigma": "5.2362E-6", "units": "deg", "title": "mean anomaly", "value": "233.8316183236221"}, {"name": "tp", "sigma": "7.275E-6", "units": "TDB", "title": "time of perihelion passage", "value": "2461377.580448041078", "label": "tp"}, {"title": "sidereal orbital period", "value": "505.2689148245089", "units": "d", "name": "per", "sigma": "3.9168E-7", "label": "period"}, {"label": "n", "sigma": "5.5231E-10", "name": "n", "units": "deg/d", "title": "mean motion", "value": ".7124918819219979"}, {"sigma": "1.1004E-9", "name": "ad", "units": "au", "value": "2.129363992057502", "title": "aphelion distance", "label": "Q"}], "epoch": "2461200.5"}